ONEWEB-0474             
1 51654U 22012AJ  24101.76766508 -.00000865  00000+0 -25133-2 0  9997
2 51654  87.8988 194.7315 0001688 103.6124 256.5191 13.10378826104868
ONEWEB-0475             
1 51655U 22012AK  24102.42432914  .00000107  00000+0  24237-3 0  9995
2 51655  87.9225 164.4308 0001607  96.9460 263.1854 13.17647980110053
ONEWEB-0490             
1 54113U 22138A   24101.92100218  .00000004  00000+0 -23090-4 0  9993
2 54113  87.9092 103.6560 0001802  91.4786 268.6553 13.19725638 71679
ONEWEB-0492             
1 54114U 22138B   24102.24954813  .00000028  00000+0  38338-4 0  9994
2 54114  87.9099 103.5897 0001663  95.9791 264.1531 13.19725031 72595
ONEWEB-0495             
1 54115U 22138C   24102.45487066 -.00000031  00000+0 -11071-3 0  9999
2 54115  87.9098 103.5603 0001050  87.1294 272.9958 13.19723051 72603
ONEWEB-0497             
1 54116U 22138D   24102.54333734  .00000005  00000+0 -20408-4 0  9997
2 54116  87.9093 103.5335 0001802  91.5247 268.6092 13.19724698 72602
ONEWEB-0499             
1 54117U 22138E   24102.52597157  .00000013  00000+0  12813-5 0  9997
2 54117  87.9099 103.5354 0001866  72.8751 287.2586 13.19726411 72613
ONEWEB-0500             
1 54118U 22138F   24102.52912024  .00000047  00000+0  85804-4 0  9998
2 54118  87.9095 103.5328 0001859  92.3869 267.7476 13.19724006 72620
